{"type": "FeatureCollection", "features": [ {"type": "Feature", "properties": {"norad_id": 66325, "name": "STARLINK-35504", "group": "last-30-days", "lat": 3.137562251754178, "lon": -143.82547431303428, "alt_km": 437.95861194437657, "timestamp": "2025-12-03T08:58:44.775607+00:00", "meta": {"OBJECT_NAME": "STARLINK-35504", "OBJECT_ID": "2025-253G", "EPOCH": "2025-12-03T04:00:01.998720", "MEAN_MOTION": 15.43387445, "ECCENTRICITY": 0.0001292, "INCLINATION": 43.0005, "RA_OF_ASC_NODE": 40.7466, "ARG_OF_PERICENTER": 276.3386, "MEAN_ANOMALY": 185.3406, "EPHEMERIS_TYPE": 0, "CLASSIFICATION_TYPE": "U", "NORAD_CAT_ID": 66325, "ELEMENT_SET_NO": 999, "REV_AT_EPOCH": 539, "BSTAR": -0.042933, "MEAN_MOTION_DOT": -0.01772993, "MEAN_MOTION_DDOT": 0}, "tle": {"line1": "1 66325U 25253G   25337.16668980 -.01772993  00000+0 -42933-1 0  9994", "line2": "2 66325  43.0005  40.7466 0001292 276.3386 185.3406 15.43387445  5390"}}, "geometry": {"type": "Point", "coordinates": [-143.82547431303428, 3.137562251754178]}}, {"type": "Feature", "properties": {"norad_id": 66326, "name": "STARLINK-35479", "group": "last-30-days", "lat": -18.004986359985885, "lon": -120.1201797824941, "alt_km": 416.07103770843605, "timestamp": "2025-12-03T08:58:44.775620+00:00", "meta": {"OBJECT_NAME": "STARLINK-35479", "OBJECT_ID": "2025-253H", "EPOCH": "2025-12-03T03:27:11.294208", "MEAN_MOTION": 15.50586332, "ECCENTRICITY": 0.0001708, "INCLINATION": 43.001, "RA_OF_ASC_NODE": 40.8146, "ARG_OF_PERICENTER": 265.1573, "MEAN_ANOMALY": 94.9092, "EPHEMERIS_TYPE": 0, "CLASSIFICATION_TYPE": "U", "NORAD_CAT_ID": 66326, "ELEMENT_SET_NO": 999, "REV_AT_EPOCH": 544, "BSTAR": 0.0016965, "MEAN_MOTION_DOT": 0.00100498, "MEAN_MOTION_DDOT": 0}, "tle": {"line1": "1 66326U 25253H   25337.14388072  .00100498  00000+0  16965-2 0  9993", "line2": "2 66326  43.0010  40.8146 0001708 265.1573  94.9092 15.50586332  5445"}}, "geometry": {"type": "Point", "coordinates": [-120.1201797824941, -18.004986359985885]}}, {"type": "Feature", "properties": {"norad_id": 66327, "name": "STARLINK-35507", "group": "last-30-days", "lat": -10.461574588159957, "lon": -129.07366638277318, "alt_km": 415.72195692531295, "timestamp": "2025-12-03T08:58:44.775632+00:00", "meta": {"OBJECT_NAME": "STARLINK-35507", "OBJECT_ID": "2025-253J", "EPOCH": "2025-12-03T04:00:01.998720", "MEAN_MOTION": 15.50612124, "ECCENTRICITY": 0.0001526, "INCLINATION": 43.0007, "RA_OF_ASC_NODE": 40.7115, "ARG_OF_PERICENTER": 264.9506, "MEAN_ANOMALY": 211.0836, "EPHEMERIS_TYPE": 0, "CLASSIFICATION_TYPE": "U", "NORAD_CAT_ID": 66327, "ELEMENT_SET_NO": 999, "REV_AT_EPOCH": 548, "BSTAR": -0.0014577, "MEAN_MOTION_DOT": -0.00085037, "MEAN_MOTION_DDOT": 0}, "tle": {"line1": "1 66327U 25253J   25337.16668980 -.00085037  00000+0 -14577-2 0  9995", "line2": "2 66327  43.0007  40.7115 0001526 264.9506 211.0836 15.50612124  5489"}}, "geometry": {"type": "Point", "coordinates": [-129.07366638277318, -10.461574588159957]}}, {"type": "Feature", "properties": {"norad_id": 66328, "name": "STARLINK-35460", "group": "last-30-days", "lat": -22.40476743360972, "lon": -114.29730057462601, "alt_km": 416.0577966431765, "timestamp": "2025-12-03T08:58:44.775643+00:00", "meta": {"OBJECT_NAME": "STARLINK-35460", "OBJECT_ID": "2025-253K", "EPOCH": "2025-12-01T14:19:31.564704", "MEAN_MOTION": 15.50606087, "ECCENTRICITY": 0.00018266, "INCLINATION": 43.0003, "RA_OF_ASC_NODE": 49.8457, "ARG_OF_PERICENTER": 291.64, "MEAN_ANOMALY": 68.4265, "EPHEMERIS_TYPE": 0, "CLASSIFICATION_TYPE": "U", "NORAD_CAT_ID": 66328, "ELEMENT_SET_NO": 999, "REV_AT_EPOCH": 520, "BSTAR": 0.0016742687, "MEAN_MOTION_DOT": 0.0009923, "MEAN_MOTION_DDOT": 0}, "tle": {"line1": "1 66328U 25253K   25335.59689311  .00099230  00000+0  16743-2 0  9997", "line2": "2 66328  43.0003  49.8457 0001826 291.6400  68.4265 15.50606087  5209"}}, "geometry": {"type": "Point", "coordinates": [-114.29730057462601, -22.40476743360972]}}, {"type": "Feature", "properties": {"norad_id": 66329, "name": "STARLINK-35505", "group": "last-30-days", "lat": -9.51952792829604, "lon": -130.12291213231103, "alt_km": 416.178574964365, "timestamp": "2025-12-03T08:58:44.775668+00:00", "meta": {"OBJECT_NAME": "STARLINK-35505", "OBJECT_ID": "2025-253L", "EPOCH": "2025-12-02T21:19:39.072288", "MEAN_MOTION": 15.50727196, "ECCENTRICITY": 0.0004007, "INCLINATION": 42.9944, "RA_OF_ASC_NODE": 42.3497, "ARG_OF_PERICENTER": 64.2756, "MEAN_ANOMALY": 295.8518, "EPHEMERIS_TYPE": 0, "CLASSIFICATION_TYPE": "U", "NORAD_CAT_ID": 66329, "ELEMENT_SET_NO": 999, "REV_AT_EPOCH": 540, "BSTAR": 0.0055423, "MEAN_MOTION_DOT": 0.00341195, "MEAN_MOTION_DDOT": 0}, "tle": {"line1": "1 66329U 25253L   25336.88864667  .00341195  00000+0  55423-2 0  9998", "line2": "2 66329  42.9944  42.3497 0004007  64.2756 295.8518 15.50727196  5400"}}, "geometry": {"type": "Point", "coordinates": [-130.12291213231103, -9.51952792829604]}}, {"type": "Feature", "properties": {"norad_id": 66330, "name": "STARLINK-35512", "group": "last-30-days", "lat": 38.34189487490214, "lon": 161.61702940063356, "alt_km": 439.15748924743275, "timestamp": "2025-12-03T08:58:44.775682+00:00", "meta": {"OBJECT_NAME": "STARLINK-35512", "OBJECT_ID": "2025-253M", "EPOCH": "2025-12-03T04:00:01.998720", "MEAN_MOTION": 15.40699918, "ECCENTRICITY": 0.0001832, "INCLINATION": 43.0008, "RA_OF_ASC_NODE": 40.8895, "ARG_OF_PERICENTER": 279.5569, "MEAN_ANOMALY": 122.9834, "EPHEMERIS_TYPE": 0, "CLASSIFICATION_TYPE": "U", "NORAD_CAT_ID": 66330, "ELEMENT_SET_NO": 999, "REV_AT_EPOCH": 539, "BSTAR": -9.107e-05, "MEAN_MOTION_DOT": -4.106e-05, "MEAN_MOTION_DDOT": 0}, "tle": {"line1": "1 66330U 25253M   25337.16668980 -.00004106  00000+0 -91070-4 0  9992", "line2": "2 66330  43.0008  40.8895 0001832 279.5569 122.9834 15.40699918  5394"}}, "geometry": {"type": "Point", "coordinates": [161.61702940063356, 38.34189487490214]}}, {"type": "Feature", "properties": {"norad_id": 66331, "name": "STARLINK-35257", "group": "last-30-days", "lat": -25.208159527328007, "lon": -110.21956974992246, "alt_km": 416.75926917817833, "timestamp": "2025-12-03T08:58:44.775693+00:00", "meta": {"OBJECT_NAME": "STARLINK-35257", "OBJECT_ID": "2025-253N", "EPOCH": "2025-12-02T21:13:11.872416", "MEAN_MOTION": 15.50647412, "ECCENTRICITY": 0.0001155, "INCLINATION": 43, "RA_OF_ASC_NODE": 42.3052, "ARG_OF_PERICENTER": 300.2073, "MEAN_ANOMALY": 59.8672, "EPHEMERIS_TYPE": 0, "CLASSIFICATION_TYPE": "U", "NORAD_CAT_ID": 66331, "ELEMENT_SET_NO": 999, "REV_AT_EPOCH": 540, "BSTAR": 0.0021787, "MEAN_MOTION_DOT": 0.00129932, "MEAN_MOTION_DDOT": 0}, "tle": {"line1": "1 66331U 25253N   25336.88416519  .00129932  00000+0  21787-2 0  9999", "line2": "2 66331  43.0000  42.3052 0001155 300.2073  59.8672 15.50647412  5402"}}, "geometry": {"type": "Point", "coordinates": [-110.21956974992246, -25.208159527328007]}}, {"type": "Feature", "properties": {"norad_id": 66332, "name": "STARLINK-35322", "group": "last-30-days", "lat": -19.76579745294071, "lon": -117.85898679509296, "alt_km": 415.9941607826104, "timestamp": "2025-12-03T08:58:44.775705+00:00", "meta": {"OBJECT_NAME": "STARLINK-35322", "OBJECT_ID": "2025-253P", "EPOCH": "2025-12-02T05:48:04.239936", "MEAN_MOTION": 15.50671276, "ECCENTRICITY": 9.86e-05, "INCLINATION": 43.0002, "RA_OF_ASC_NODE": 46.0856, "ARG_OF_PERICENTER": 282.8379, "MEAN_ANOMALY": 77.2371, "EPHEMERIS_TYPE": 0, "CLASSIFICATION_TYPE": "U", "NORAD_CAT_ID": 66332, "ELEMENT_SET_NO": 999, "REV_AT_EPOCH": 530, "BSTAR": 0.001523, "MEAN_MOTION_DOT": 0.00090339, "MEAN_MOTION_DDOT": 0}, "tle": {"line1": "1 66332U 25253P   25336.24171574  .00090339  00000+0  15230-2 0  9993", "line2": "2 66332  43.0002  46.0856 0000986 282.8379  77.2371 15.50671276  5307"}}, "geometry": {"type": "Point", "coordinates": [-117.85898679509296, -19.76579745294071]}}, {"type": "Feature", "properties": {"norad_id": 66333, "name": "STARLINK-35400", "group": "last-30-days", "lat": -24.058616146844084, "lon": -111.92942015013602, "alt_km": 416.67875707222174, "timestamp": "2025-12-03T08:58:44.775716+00:00", "meta": {"OBJECT_NAME": "STARLINK-35400", "OBJECT_ID": "2025-253Q", "EPOCH": "2025-12-02T21:13:41.530080", "MEAN_MOTION": 15.50641369, "ECCENTRICITY": 0.0001052, "INCLINATION": 42.9984, "RA_OF_ASC_NODE": 42.3069, "ARG_OF_PERICENTER": 293.896, "MEAN_ANOMALY": 66.179, "EPHEMERIS_TYPE": 0, "CLASSIFICATION_TYPE": "U", "NORAD_CAT_ID": 66333, "ELEMENT_SET_NO": 999, "REV_AT_EPOCH": 540, "BSTAR": 0.0019778, "MEAN_MOTION_DOT": 0.00117708, "MEAN_MOTION_DDOT": 0}, "tle": {"line1": "1 66333U 25253Q   25336.88450845  .00117708  00000+0  19778-2 0  9996", "line2": "2 66333  42.9984  42.3069 0001052 293.8960  66.1790 15.50641369  5406"}}, "geometry": {"type": "Point", "coordinates": [-111.92942015013602, -24.058616146844084]}}, {"type": "Feature", "properties": {"norad_id": 66334, "name": "STARLINK-35407", "group": "last-30-days", "lat": -20.162205453864175, "lon": -117.33710427895862, "alt_km": 415.5801205444013, "timestamp": "2025-12-03T08:58:44.775727+00:00", "meta": {"OBJECT_NAME": "STARLINK-35407", "OBJECT_ID": "2025-253R", "EPOCH": "2025-12-02T05:47:54.704832", "MEAN_MOTION": 15.50606846, "ECCENTRICITY": 0.000182, "INCLINATION": 43.0002, "RA_OF_ASC_NODE": 46.0853, "ARG_OF_PERICENTER": 277.7851, "MEAN_ANOMALY": 82.2803, "EPHEMERIS_TYPE": 0, "CLASSIFICATION_TYPE": "U", "NORAD_CAT_ID": 66334, "ELEMENT_SET_NO": 999, "REV_AT_EPOCH": 530, "BSTAR": 0.0026112, "MEAN_MOTION_DOT": 0.00156096, "MEAN_MOTION_DDOT": 0}, "tle": {"line1": "1 66334U 25253R   25336.24160538  .00156096  00000+0  26112-2 0  9997", "line2": "2 66334  43.0002  46.0853 0001820 277.7851  82.2803 15.50606846  5309"}}, "geometry": {"type": "Point", "coordinates": [-117.33710427895862, -20.162205453864175]}}]}